[{"OBJECT_NAME":"SL-8 R/B","OBJECT_ID":"1988-053B","EPOCH":"2026-03-10T06:49:57.402624","MEAN_MOTION":14.38916161,"ECCENTRICITY":0.00214416,"INCLINATION":74.0459,"RA_OF_ASC_NODE":111.3696,"ARG_OF_PERICENTER":290.5618,"MEAN_ANOMALY":143.346,"EPHEMERIS_TYPE":0,"CLASSIFICATION_TYPE":"U","NORAD_CAT_ID":19257,"ELEMENT_SET_NO":999,"REV_AT_EPOCH":97668,"BSTAR":0.00010237809,"MEAN_MOTION_DOT":2.9e-6,"MEAN_MOTION_DDOT":0},{"OBJECT_NAME":"COSMOS 1975","OBJECT_ID":"1988-093A","EPOCH":"2026-03-10T02:49:30.995040","MEAN_MOTION":15.28077885,"ECCENTRICITY":0.00121366,"INCLINATION":82.518,"RA_OF_ASC_NODE":117.2554,"ARG_OF_PERICENTER":162.067,"MEAN_ANOMALY":198.1,"EPHEMERIS_TYPE":0,"CLASSIFICATION_TYPE":"U","NORAD_CAT_ID":19573,"ELEMENT_SET_NO":999,"REV_AT_EPOCH":1947,"BSTAR":0.00026509899,"MEAN_MOTION_DOT":7.305e-5,"MEAN_MOTION_DDOT":0},{"OBJECT_NAME":"SL-14 R/B","OBJECT_ID":"1988-093B","EPOCH":"2026-03-09T23:59:24.302112","MEAN_MOTION":14.85656984,"ECCENTRICITY":0.0021744,"INCLINATION":82.5306,"RA_OF_ASC_NODE":41.7526,"ARG_OF_PERICENTER":40.523,"MEAN_ANOMALY":23.6778,"EPHEMERIS_TYPE":0,"CLASSIFICATION_TYPE":"U","NORAD_CAT_ID":19574,"ELEMENT_SET_NO":999,"REV_AT_EPOCH":106,"BSTAR":8.4678598e-5,"MEAN_MOTION_DOT":7.61e-6,"MEAN_MOTION_DDOT":0},{"OBJECT_NAME":"SL-16 R/B","OBJECT_ID":"1988-102B","EPOCH":"2026-03-10T06:11:40.265952","MEAN_MOTION":14.16152424,"ECCENTRICITY":0.00139908,"INCLINATION":71.0001,"RA_OF_ASC_NODE":150.3016,"ARG_OF_PERICENTER":0.7941,"MEAN_ANOMALY":359.3201,"EPHEMERIS_TYPE":0,"CLASSIFICATION_TYPE":"U","NORAD_CAT_ID":19650,"ELEMENT_SET_NO":999,"REV_AT_EPOCH":92697,"BSTAR":0.00017925338,"MEAN_MOTION_DOT":3.07e-6,"MEAN_MOTION_DDOT":0},{"OBJECT_NAME":"INTERCOSMOS 24","OBJECT_ID":"1989-080A","EPOCH":"2026-03-10T02:53:10.345632","MEAN_MOTION":12.59558521,"ECCENTRICITY":0.11866899,"INCLINATION":82.6026,"RA_OF_ASC_NODE":104.1239,"ARG_OF_PERICENTER":291.82,"MEAN_ANOMALY":56.0884,"EPHEMERIS_TYPE":0,"CLASSIFICATION_TYPE":"U","NORAD_CAT_ID":20261,"ELEMENT_SET_NO":999,"REV_AT_EPOCH":66685,"BSTAR":0.00025594495,"MEAN_MOTION_DOT":8.59e-6,"MEAN_MOTION_DDOT":0},{"OBJECT_NAME":"SL-14 R/B","OBJECT_ID":"1989-080C","EPOCH":"2026-03-10T06:37:27.199200","MEAN_MOTION":12.50494571,"ECCENTRICITY":0.12305946,"INCLINATION":82.5975,"RA_OF_ASC_NODE":172.81,"ARG_OF_PERICENTER":183.4098,"MEAN_ANOMALY":175.7992,"EPHEMERIS_TYPE":0,"CLASSIFICATION_TYPE":"U","NORAD_CAT_ID":20262,"ELEMENT_SET_NO":999,"REV_AT_EPOCH":66022,"BSTAR":0.00021035295,"MEAN_MOTION_DOT":7.14e-6,"MEAN_MOTION_DDOT":0},{"OBJECT_NAME":"DELTA 1 R/B","OBJECT_ID":"1989-089B","EPOCH":"2026-03-10T02:29:17.003328","MEAN_MOTION":14.5066329,"ECCENTRICITY":0.00704974,"INCLINATION":97.0705,"RA_OF_ASC_NODE":276.4765,"ARG_OF_PERICENTER":120.6902,"MEAN_ANOMALY":240.1268,"EPHEMERIS_TYPE":0,"CLASSIFICATION_TYPE":"U","NORAD_CAT_ID":20323,"ELEMENT_SET_NO":999,"REV_AT_EPOCH":89579,"BSTAR":0.00010851149,"MEAN_MOTION_DOT":4.05e-6,"MEAN_MOTION_DDOT":0},{"OBJECT_NAME":"ARIANE 40 R/B","OBJECT_ID":"1990-005H","EPOCH":"2026-03-10T03:51:49.228416","MEAN_MOTION":14.3987085,"ECCENTRICITY":0.00098846,"INCLINATION":98.3083,"RA_OF_ASC_NODE":129.8085,"ARG_OF_PERICENTER":197.1358,"MEAN_ANOMALY":162.9498,"EPHEMERIS_TYPE":0,"CLASSIFICATION_TYPE":"U","NORAD_CAT_ID":20443,"ELEMENT_SET_NO":999,"REV_AT_EPOCH":89287,"BSTAR":0.00011795787,"MEAN_MOTION_DOT":3.28e-6,"MEAN_MOTION_DDOT":0},{"OBJECT_NAME":"DELTA 2 R/B(1)","OBJECT_ID":"1990-008B","EPOCH":"2026-03-10T06:32:53.465856","MEAN_MOTION":15.56077469,"ECCENTRICITY":0.00852226,"INCLINATION":35.6036,"RA_OF_ASC_NODE":171.0267,"ARG_OF_PERICENTER":264.1247,"MEAN_ANOMALY":94.9769,"EPHEMERIS_TYPE":0,"CLASSIFICATION_TYPE":"U","NORAD_CAT_ID":20453,"ELEMENT_SET_NO":999,"REV_AT_EPOCH":92622,"BSTAR":0.00086258678,"MEAN_MOTION_DOT":0.00074086,"MEAN_MOTION_DDOT":0},{"OBJECT_NAME":"COSMOS 2058","OBJECT_ID":"1990-010A","EPOCH":"2026-03-10T07:26:44.071584","MEAN_MOTION":15.11329214,"ECCENTRICITY":0.00092823,"INCLINATION":82.4669,"RA_OF_ASC_NODE":46.8166,"ARG_OF_PERICENTER":342.2854,"MEAN_ANOMALY":17.8051,"EPHEMERIS_TYPE":0,"CLASSIFICATION_TYPE":"U","NORAD_CAT_ID":20465,"ELEMENT_SET_NO":999,"REV_AT_EPOCH":94233,"BSTAR":0.00031675651,"MEAN_MOTION_DOT":5.37e-5,"MEAN_MOTION_DDOT":0},{"OBJECT_NAME":"SL-14 R/B","OBJECT_ID":"1990-010B","EPOCH":"2026-03-10T00:34:44.898528","MEAN_MOTION":14.83569072,"ECCENTRICITY":0.00185177,"INCLINATION":82.4987,"RA_OF_ASC_NODE":267.0746,"ARG_OF_PERICENTER":301.1743,"MEAN_ANOMALY":58.7656,"EPHEMERIS_TYPE":0,"CLASSIFICATION_TYPE":"U","NORAD_CAT_ID":20466,"ELEMENT_SET_NO":999,"REV_AT_EPOCH":92853,"BSTAR":5.8945142e-5,"MEAN_MOTION_DOT":5.1e-6,"MEAN_MOTION_DDOT":0},{"OBJECT_NAME":"SL-14 R/B","OBJECT_ID":"1990-018B","EPOCH":"2026-03-10T07:29:46.479264","MEAN_MOTION":14.82145823,"ECCENTRICITY":0.00176755,"INCLINATION":82.5203,"RA_OF_ASC_NODE":222.5074,"ARG_OF_PERICENTER":90.1532,"MEAN_ANOMALY":270.1707,"EPHEMERIS_TYPE":0,"CLASSIFICATION_TYPE":"U","NORAD_CAT_ID":20511,"ELEMENT_SET_NO":999,"REV_AT_EPOCH":92267,"BSTAR":8.2811522e-5,"MEAN_MOTION_DOT":6.84e-6,"MEAN_MOTION_DDOT":0},{"OBJECT_NAME":"HST","OBJECT_ID":"1990-037B","EPOCH":"2026-03-10T04:53:25.597536","MEAN_MOTION":15.2949347,"ECCENTRICITY":0.00018621,"INCLINATION":28.4717,"RA_OF_ASC_NODE":36.491,"ARG_OF_PERICENTER":130.7593,"MEAN_ANOMALY":229.3165,"EPHEMERIS_TYPE":0,"CLASSIFICATION_TYPE":"U","NORAD_CAT_ID":20580,"ELEMENT_SET_NO":999,"REV_AT_EPOCH":77339,"BSTAR":0.0003103929,"MEAN_MOTION_DOT":9.369e-5,"MEAN_MOTION_DDOT":0},{"OBJECT_NAME":"SL-16 R/B","OBJECT_ID":"1990-046B","EPOCH":"2026-03-10T01:12:56.052864","MEAN_MOTION":14.15012282,"ECCENTRICITY":0.00162186,"INCLINATION":70.9987,"RA_OF_ASC_NODE":297.1567,"ARG_OF_PERICENTER":299.1265,"MEAN_ANOMALY":60.8233,"EPHEMERIS_TYPE":0,"CLASSIFICATION_TYPE":"U","NORAD_CAT_ID":20625,"ELEMENT_SET_NO":999,"REV_AT_EPOCH":84844,"BSTAR":-9.3426244e-5,"MEAN_MOTION_DOT":-2.29e-6,"MEAN_MOTION_DDOT":0},{"OBJECT_NAME":"COSMOS 2084","OBJECT_ID":"1990-055A","EPOCH":"2026-03-10T01:17:48.515136","MEAN_MOTION":15.05654461,"ECCENTRICITY":0.00169968,"INCLINATION":62.7921,"RA_OF_ASC_NODE":334.3358,"ARG_OF_PERICENTER":190.1626,"MEAN_ANOMALY":169.9134,"EPHEMERIS_TYPE":0,"CLASSIFICATION_TYPE":"U","NORAD_CAT_ID":20663,"ELEMENT_SET_NO":999,"REV_AT_EPOCH":93637,"BSTAR":0.00022930917,"MEAN_MOTION_DOT":3.135e-5,"MEAN_MOTION_DDOT":0},{"OBJECT_NAME":"SL-6 R/B(2)","OBJECT_ID":"1990-055D","EPOCH":"2026-03-09T21:41:59.551872","MEAN_MOTION":15.03595553,"ECCENTRICITY":0.0024774,"INCLINATION":62.7825,"RA_OF_ASC_NODE":253.121,"ARG_OF_PERICENTER":347.1508,"MEAN_ANOMALY":12.8957,"EPHEMERIS_TYPE":0,"CLASSIFICATION_TYPE":"U","NORAD_CAT_ID":20666,"ELEMENT_SET_NO":999,"REV_AT_EPOCH":93822,"BSTAR":0.00020901,"MEAN_MOTION_DOT":2.688e-5,"MEAN_MOTION_DDOT":0},{"OBJECT_NAME":"SL-8 R/B","OBJECT_ID":"1990-078B","EPOCH":"2026-03-09T23:29:28.405536","MEAN_MOTION":14.89071258,"ECCENTRICITY":0.03622331,"INCLINATION":82.9006,"RA_OF_ASC_NODE":251.0506,"ARG_OF_PERICENTER":13.025,"MEAN_ANOMALY":348.0018,"EPHEMERIS_TYPE":0,"CLASSIFICATION_TYPE":"U","NORAD_CAT_ID":20775,"ELEMENT_SET_NO":999,"REV_AT_EPOCH":80934,"BSTAR":0.00055934019,"MEAN_MOTION_DOT":0.00018998,"MEAN_MOTION_DDOT":0}]
